#aV2022  5 12  0  0  0.00000000     288 DD+AD WGS84 FIT  NGA
## 2209 345600.00000000   300.00000000 59711 0.0000000000000
+   32     1  2  3  4  5  6  7  8  9 10 11 12 13 14 15 16 17
+         18 19 20 21 22 23 24 25 26 27 28 29 30 31 32  0  0
+          0  0  0  0  0  0  0  0  0  0  0  0  0  0  0  0  0
+          0  0  0  0  0  0  0  0  0  0  0  0  0  0  0  0  0
+          0  0  0  0  0  0  0  0  0  0  0  0  0  0  0  0  0
++         2  2  2  2  2  2  2  2  2  2  2  2  2  2  2  2  2
++         2  2  2  2  2  2  2  2  2  2  2  2  2  2  2  0  0
++         0  0  0  0  0  0  0  0  0  0  0  0  0  0  0  0  0
++         0  0  0  0  0  0  0  0  0  0  0  0  0  0  0  0  0
++         0  0  0  0  0  0  0  0  0  0  0  0  0  0  0  0  0
%c cc cc ccc ccc cccc cccc cccc cccc ccccc ccccc ccccc ccccc
%c cc cc ccc ccc cccc cccc cccc cccc ccccc ccccc ccccc ccccc
%f  0.0000000  0.000000000  0.00000000000  0.000000000000000
%f  0.0000000  0.000000000  0.00000000000  0.000000000000000
%i    0    0    0    0      0      0      0      0         0
%i    0    0    0    0      0      0      0      0         0
/*      NGA, ST. LOUIS,MO.                                  
/*   EPHEMERIS COMPUTED FROM 2 DAYS OF DATA                 
/*   EPOCHA v7 SMOOTHER                                     
/*   G2139 IERS2010 SATIGS SATAPC                           
*  2022  5 12  6 30  0.00000000
P  1 -17280.335207  -6047.989255  19077.741177    364.832070                    
V  1 -10549.692134 -22317.257748 -16037.202286     -0.083327                    
P  2  14877.123509  21825.514825  -1163.553280   -653.265861                    
V  2  -1150.717234   3426.037544  31930.416193      0.000557                    
P  3 -18108.551759   5200.177579  18564.400444   -241.181369                    
V  3  11417.724585 -20935.062023  17014.742834     -0.137586                    
P  4 -26560.495902   -912.088322  -1271.403032   -168.025243                    
V  4  -1433.478224  -2844.130963  31648.304433      0.035382                    
P  5  11491.692749  10474.353138 -21684.571109    -81.539888                    
V  5 -13753.396912  23425.427430   4205.641351     -0.013734                    
P  6   3757.987598  23576.267024  11616.507130    300.184743                    
V  6  -8352.002910 -12149.407119  27584.961142      0.145150                    
P  7 -11062.470232  11107.801527 -20978.234252    321.984516                    
V  7 -13647.384009 -24102.540026  -5950.714654      0.003899                    
P  8 -24806.595686  -5922.647853  -8085.287471    -67.662692                    
V  8  10138.932421  -2127.763119 -29347.734410     -0.015752                    
P  9 -22928.646546   7584.721347 -11150.611551   -337.370854                    
V  9 -14028.250309  -2766.040530  27091.143872      0.028692                    
P 10  10749.166218 -23652.156394   4856.405999   -411.354447                    
V 10   5368.114940  -3761.822132 -31424.931089     -0.142721                    
P 11  12834.130400  23102.042289  -2733.489841    -26.053296                    
V 11  -1001.600817   4286.706280  31545.061802      0.049588                    
P 12  17021.386197     12.999177  20088.271598   -214.169895                    
V 12 -14464.745635  21772.589901  12196.433503     -0.058392                    
P 13  18338.601009  13112.909698 -14330.398987    310.085452                    
V 13 -17902.715771  -1221.269958 -24115.810478      0.067921                    
P 14 -12530.882113  23083.019258   3610.796536   -107.876034                    
V 14  -5154.781446   2071.620924 -31191.671591     -0.018052                    
P 15  25469.641091   3399.456167  -7750.705154    -61.909340                    
V 15  -8918.279963   4058.925286 -28768.514019      0.029854                    
P 16  -6638.720742 -15108.356090 -20982.547357   -500.123238                    
V 16  16481.869757 -20265.694307   9949.874113     -0.033360                    
P 17  -8306.250192  13779.265809  21571.890780    611.613234                    
V 17 -26158.710108  -3000.840729  -8274.819086      0.046443                    
P 18  11142.689029 -10655.649453 -21621.375288    172.349971                    
V 18  12838.534883  24230.587813  -5433.827336     -0.100615                    
P 19    307.049313  14861.926240  21761.790725    156.226938                    
V 19 -27938.144367  -3817.249950   2765.635320      0.049928                    
P 20   4958.153499  19918.496111 -16973.946791    515.290099                    
V 20 -10166.892494  19072.927928  19176.933318     -0.008852                    
P 21 -19482.755805 -14265.552577  12441.698930    161.038518                    
V 21  -6436.019418 -13153.001223 -25880.847317      0.001842                    
P 22  -3523.715399 -15621.909649  21630.483062    257.772523                    
V 22  26337.050188   2647.359949   6148.744784      0.061421                    
P 23  16489.537441 -19820.524857  -6164.412836    -21.311349                    
V 23  -1744.467483   8049.859242 -30693.509062     -0.025100                    
P 24  19458.697368   8953.570850  15660.526932    242.549507                    
V 24   9029.013044  18373.871495 -20906.715108     -0.066228                    
P 25  18592.350168 -14348.428825  11848.653972    323.629713                    
V 25  -5822.153869  14733.711420  26607.923839      0.048486                    
P 26    874.875459 -22599.310794 -13763.265497    205.041370                    
V 26  10966.422469 -13960.732682  24076.955814      0.026182                    
P 27 -15866.832814 -12544.943108 -17630.349284    201.418661                    
V 27  21814.619216   -485.476501 -19138.402495      0.064202                    
P 28  -6548.802713  22875.421826  12549.684317    359.347492                    
V 28 -10540.203422  10864.750476 -26166.438049     -0.064431                    
P 29  23685.722017  -4895.507228 -11105.509568   -512.746364                    
V 29  13687.336379   3329.739570  27793.713009     -0.039738                    
P 30  -4303.846447  19517.899155 -17288.258983   -527.560404                    
V 30 -12176.829128 -18802.260679 -18360.805848     -0.014700                    
P 31  -5126.460564 -24189.972104   8912.234416   -177.264516                    
V 31   8028.778847   8996.939722  29083.407751     -0.015887                    
P 32   4995.250762 -14982.835227  21476.406731   -125.203607                    
V 32  26942.889630   1270.711890  -5602.154083     -0.086126                    
EOF
